{"type": "FeatureCollection", "features": [ {"type": "Feature", "properties": {"norad_id": 43623, "name": "BEIDOU-3 M14 (C33)", "group": "beidou", "lat": -37.21050010914125, "lon": 38.95343636311025, "alt_km": 21524.813989763934, "timestamp": "2025-12-02T06:27:53.279046+00:00", "meta": {"OBJECT_NAME": "BEIDOU-3 M14 (C33)", "OBJECT_ID": "2018-072B", "EPOCH": "2025-12-01T19:14:30.967584", "MEAN_MOTION": 1.86230723, "ECCENTRICITY": 0.0003032, "INCLINATION": 56.4513, "RA_OF_ASC_NODE": 69.1766, "ARG_OF_PERICENTER": 336.0963, "MEAN_ANOMALY": 23.8927, "EPHEMERIS_TYPE": 0, "CLASSIFICATION_TYPE": "U", "NORAD_CAT_ID": 43623, "ELEMENT_SET_NO": 999, "REV_AT_EPOCH": 4897, "BSTAR": 0, "MEAN_MOTION_DOT": -4.3e-07, "MEAN_MOTION_DDOT": 0}, "tle": {"line1": "1 43623U 18072B   25335.80174731 -.00000043  00000+0  00000+0 0  9991", "line2": "2 43623  56.4513  69.1766 0003032 336.0963  23.8927  1.86230723 48978"}}, "geometry": {"type": "Point", "coordinates": [38.95343636311025, -37.21050010914125]}}, {"type": "Feature", "properties": {"norad_id": 43647, "name": "BEIDOU-3 M16 (C35)", "group": "beidou", "lat": -22.13033152389096, "lon": 143.8831836651595, "alt_km": 21549.933616368577, "timestamp": "2025-12-02T06:27:53.279057+00:00", "meta": {"OBJECT_NAME": "BEIDOU-3 M16 (C35)", "OBJECT_ID": "2018-078A", "EPOCH": "2025-11-30T21:15:37.253376", "MEAN_MOTION": 1.86232146, "ECCENTRICITY": 0.0006928, "INCLINATION": 54.273, "RA_OF_ASC_NODE": 306.9358, "ARG_OF_PERICENTER": 18.2281, "MEAN_ANOMALY": 341.7905, "EPHEMERIS_TYPE": 0, "CLASSIFICATION_TYPE": "U", "NORAD_CAT_ID": 43647, "ELEMENT_SET_NO": 999, "REV_AT_EPOCH": 4846, "BSTAR": 0, "MEAN_MOTION_DOT": -5.5e-07, "MEAN_MOTION_DDOT": 0}, "tle": {"line1": "1 43647U 18078A   25334.88584784 -.00000055  00000+0  00000+0 0  9996", "line2": "2 43647  54.2730 306.9358 0006928  18.2281 341.7905  1.86232146 48462"}}, "geometry": {"type": "Point", "coordinates": [143.8831836651595, -22.13033152389096]}}, {"type": "Feature", "properties": {"norad_id": 43648, "name": "BEIDOU-3 M15 (C34)", "group": "beidou", "lat": 44.05597368534623, "lon": 82.73709734761783, "alt_km": 21525.02578341698, "timestamp": "2025-12-02T06:27:53.279069+00:00", "meta": {"OBJECT_NAME": "BEIDOU-3 M15 (C34)", "OBJECT_ID": "2018-078B", "EPOCH": "2025-12-01T00:21:40.976640", "MEAN_MOTION": 1.86232, "ECCENTRICITY": 0.0003569, "INCLINATION": 54.2686, "RA_OF_ASC_NODE": 306.9322, "ARG_OF_PERICENTER": 17.0419, "MEAN_ANOMALY": 342.9634, "EPHEMERIS_TYPE": 0, "CLASSIFICATION_TYPE": "U", "NORAD_CAT_ID": 43648, "ELEMENT_SET_NO": 999, "REV_AT_EPOCH": 4848, "BSTAR": 0, "MEAN_MOTION_DOT": -5.6e-07, "MEAN_MOTION_DDOT": 0}, "tle": {"line1": "1 43648U 18078B   25335.01505760 -.00000056  00000+0  00000+0 0  9991", "line2": "2 43648  54.2686 306.9322 0003569  17.0419 342.9634  1.86232000 48485"}}, "geometry": {"type": "Point", "coordinates": [82.73709734761783, 44.05597368534623]}}, {"type": "Feature", "properties": {"norad_id": 43683, "name": "BEIDOU-3 G1 (C59)", "group": "beidou", "lat": -1.0962320634885088, "lon": -51.65706092234689, "alt_km": 35792.76748732056, "timestamp": "2025-12-02T06:27:53.279080+00:00", "meta": {"OBJECT_NAME": "BEIDOU-3 G1 (C59)", "OBJECT_ID": "2018-085A", "EPOCH": "2025-12-01T23:02:32.785152", "MEAN_MOTION": 1.00274254, "ECCENTRICITY": 0.0002122, "INCLINATION": 2.5784, "RA_OF_ASC_NODE": 103.2993, "ARG_OF_PERICENTER": 61.0214, "MEAN_ANOMALY": 32.4115, "EPHEMERIS_TYPE": 0, "CLASSIFICATION_TYPE": "U", "NORAD_CAT_ID": 43683, "ELEMENT_SET_NO": 999, "REV_AT_EPOCH": 2608, "BSTAR": 0, "MEAN_MOTION_DOT": -2.55e-06, "MEAN_MOTION_DDOT": 0}, "tle": {"line1": "1 43683U 18085A   25335.96010168 -.00000255  00000+0  00000+0 0  9996", "line2": "2 43683   2.5784 103.2993 0002122  61.0214  32.4115  1.00274254 26087"}}, "geometry": {"type": "Point", "coordinates": [-51.65706092234689, -1.0962320634885088]}}, {"type": "Feature", "properties": {"norad_id": 43706, "name": "BEIDOU-3 M17 (C36)", "group": "beidou", "lat": 11.909797155142316, "lon": -162.2507554295465, "alt_km": 21520.54507408943, "timestamp": "2025-12-02T06:27:53.279092+00:00", "meta": {"OBJECT_NAME": "BEIDOU-3 M17 (C36)", "OBJECT_ID": "2018-093A", "EPOCH": "2025-11-30T05:23:59.265600", "MEAN_MOTION": 1.86228182, "ECCENTRICITY": 0.00063751, "INCLINATION": 54.1727, "RA_OF_ASC_NODE": 189.0472, "ARG_OF_PERICENTER": 306.0351, "MEAN_ANOMALY": 138.1008, "EPHEMERIS_TYPE": 0, "CLASSIFICATION_TYPE": "U", "NORAD_CAT_ID": 43706, "ELEMENT_SET_NO": 999, "REV_AT_EPOCH": 4783, "BSTAR": 0, "MEAN_MOTION_DOT": 1.11e-06, "MEAN_MOTION_DDOT": 0}, "tle": {"line1": "1 43706U 18093A   25334.22499150  .00000111  00000+0  00000+0 0  9991", "line2": "2 43706  54.1727 189.0472 0006375 306.0351 138.1008  1.86228182 47839"}}, "geometry": {"type": "Point", "coordinates": [-162.2507554295465, 11.909797155142316]}}, {"type": "Feature", "properties": {"norad_id": 43707, "name": "BEIDOU-3 M18 (C37)", "group": "beidou", "lat": 50.54546400713448, "lon": -52.37997603022797, "alt_km": 21530.53929589782, "timestamp": "2025-12-02T06:27:53.279103+00:00", "meta": {"OBJECT_NAME": "BEIDOU-3 M18 (C37)", "OBJECT_ID": "2018-093B", "EPOCH": "2025-12-01T00:50:13.072128", "MEAN_MOTION": 1.86226416, "ECCENTRICITY": 0.0006364, "INCLINATION": 54.1734, "RA_OF_ASC_NODE": 189.0115, "ARG_OF_PERICENTER": 350.6822, "MEAN_ANOMALY": 9.3993, "EPHEMERIS_TYPE": 0, "CLASSIFICATION_TYPE": "U", "NORAD_CAT_ID": 43707, "ELEMENT_SET_NO": 999, "REV_AT_EPOCH": 4784, "BSTAR": 0, "MEAN_MOTION_DOT": 1.18e-06, "MEAN_MOTION_DDOT": 0}, "tle": {"line1": "1 43707U 18093B   25335.03487352  .00000118  00000+0  00000+0 0  9990", "line2": "2 43707  54.1734 189.0115 0006364 350.6822   9.3993  1.86226416 47849"}}, "geometry": {"type": "Point", "coordinates": [-52.37997603022797, 50.54546400713448]}}, {"type": "Feature", "properties": {"norad_id": 44204, "name": "BEIDOU-3 IGSO-1 (C38)", "group": "beidou", "lat": -49.35559622073785, "lon": -94.62186869000979, "alt_km": 35692.46714852382, "timestamp": "2025-12-02T06:27:53.279114+00:00", "meta": {"OBJECT_NAME": "BEIDOU-3 IGSO-1 (C38)", "OBJECT_ID": "2019-023A", "EPOCH": "2025-11-19T14:15:02.708640", "MEAN_MOTION": 1.00252177, "ECCENTRICITY": 0.0026966, "INCLINATION": 58.4003, "RA_OF_ASC_NODE": 39.8168, "ARG_OF_PERICENTER": 221.2202, "MEAN_ANOMALY": 126.9723, "EPHEMERIS_TYPE": 0, "CLASSIFICATION_TYPE": "U", "NORAD_CAT_ID": 44204, "ELEMENT_SET_NO": 999, "REV_AT_EPOCH": 510, "BSTAR": 0, "MEAN_MOTION_DOT": -2.26e-06, "MEAN_MOTION_DDOT": 0}, "tle": {"line1": "1 44204U 19023A   25323.59378135 -.00000226  00000+0  00000+0 0  9994", "line2": "2 44204  58.4003  39.8168 0026966 221.2202 126.9723  1.00252177  5102"}}, "geometry": {"type": "Point", "coordinates": [-94.62186869000979, -49.35559622073785]}}, {"type": "Feature", "properties": {"norad_id": 44231, "name": "BEIDOU-2 G8 (C01)", "group": "beidou", "lat": -1.3880097184920952, "lon": -47.138696438514884, "alt_km": 35753.70292584527, "timestamp": "2025-12-02T06:27:53.279128+00:00", "meta": {"OBJECT_NAME": "BEIDOU-2 G8 (C01)", "OBJECT_ID": "2019-027A", "EPOCH": "2025-12-01T19:38:18.306816", "MEAN_MOTION": 1.00270736, "ECCENTRICITY": 0.0008199, "INCLINATION": 1.6318, "RA_OF_ASC_NODE": 74.6903, "ARG_OF_PERICENTER": 255.2015, "MEAN_ANOMALY": 180.1944, "EPHEMERIS_TYPE": 0, "CLASSIFICATION_TYPE": "U", "NORAD_CAT_ID": 44231, "ELEMENT_SET_NO": 999, "REV_AT_EPOCH": 2410, "BSTAR": 0, "MEAN_MOTION_DOT": -2.26e-06, "MEAN_MOTION_DDOT": 0}, "tle": {"line1": "1 44231U 19027A   25335.81826744 -.00000226  00000+0  00000+0 0  9990", "line2": "2 44231   1.6318  74.6903 0008199 255.2015 180.1944  1.00270736 24101"}}, "geometry": {"type": "Point", "coordinates": [-47.138696438514884, -1.3880097184920952]}}, {"type": "Feature", "properties": {"norad_id": 44337, "name": "BEIDOU-3 IGSO-2 (C39)", "group": "beidou", "lat": 41.06541316459001, "lon": -56.7387034567016, "alt_km": 35740.90770673031, "timestamp": "2025-12-02T06:27:53.279140+00:00", "meta": {"OBJECT_NAME": "BEIDOU-3 IGSO-2 (C39)", "OBJECT_ID": "2019-035A", "EPOCH": "2025-12-01T05:17:49.661952", "MEAN_MOTION": 1.00274502, "ECCENTRICITY": 0.00376064, "INCLINATION": 55.2223, "RA_OF_ASC_NODE": 160.6035, "ARG_OF_PERICENTER": 202.2564, "MEAN_ANOMALY": 266.4761, "EPHEMERIS_TYPE": 0, "CLASSIFICATION_TYPE": "U", "NORAD_CAT_ID": 44337, "ELEMENT_SET_NO": 999, "REV_AT_EPOCH": 2368, "BSTAR": 0, "MEAN_MOTION_DOT": -2.5e-07, "MEAN_MOTION_DDOT": 0}, "tle": {"line1": "1 44337U 19035A   25335.22071368 -.00000025  00000+0  00000+0 0  9992", "line2": "2 44337  55.2223 160.6035 0037606 202.2564 266.4761  1.00274502 23688"}}, "geometry": {"type": "Point", "coordinates": [-56.7387034567016, 41.06541316459001]}}, {"type": "Feature", "properties": {"norad_id": 44542, "name": "BEIDOU-3 M24 (C46)", "group": "beidou", "lat": 44.772529780854256, "lon": -125.33673555756442, "alt_km": 21501.317728666676, "timestamp": "2025-12-02T06:27:53.279151+00:00", "meta": {"OBJECT_NAME": "BEIDOU-3 M24 (C46)", "OBJECT_ID": "2019-061A", "EPOCH": "2025-12-01T02:32:46.252896", "MEAN_MOTION": 1.86229258, "ECCENTRICITY": 0.00095598, "INCLINATION": 54.4002, "RA_OF_ASC_NODE": 189.409, "ARG_OF_PERICENTER": 23.5384, "MEAN_ANOMALY": 336.5991, "EPHEMERIS_TYPE": 0, "CLASSIFICATION_TYPE": "U", "NORAD_CAT_ID": 44542, "ELEMENT_SET_NO": 999, "REV_AT_EPOCH": 4210, "BSTAR": 0, "MEAN_MOTION_DOT": 1.18e-06, "MEAN_MOTION_DDOT": 0}, "tle": {"line1": "1 44542U 19061A   25335.10609089  .00000118  00000+0  00000+0 0  9995", "line2": "2 44542  54.4002 189.4090 0009559  23.5384 336.5991  1.86229258 42106"}}, "geometry": {"type": "Point", "coordinates": [-125.33673555756442, 44.772529780854256]}}]}